[Satellite]
VERSION=1.1
NAME=DIWATA-1
NICKNAME=DIWATA-1
TLE1=1 41463U 98067HT  18021.15349231  .00008387  00000-0  82038-4 0  9999
TLE2=2 41463  51.6418   1.6723 0000140 110.9734 311.1649 15.67105377 98929
